[{"OBJECT_NAME":"STARLINK-3981","OBJECT_ID":"2022-053AH","EPOCH":"2026-03-09T12:38:13.805088","MEAN_MOTION":15.08839843,"ECCENTRICITY":0.00013868,"INCLINATION":53.2179,"RA_OF_ASC_NODE":144.8557,"ARG_OF_PERICENTER":94.485,"MEAN_ANOMALY":265.63,"EPHEMERIS_TYPE":0,"CLASSIFICATION_TYPE":"U","NORAD_CAT_ID":52687,"ELEMENT_SET_NO":999,"REV_AT_EPOCH":21109,"BSTAR":3.8085407e-5,"MEAN_MOTION_DOT":3.18e-6,"MEAN_MOTION_DDOT":0},{"OBJECT_NAME":"YUNYAO-1 48","OBJECT_ID":"2025-059F","EPOCH":"2026-03-09T22:24:05.789376","MEAN_MOTION":15.10574052,"ECCENTRICITY":0.00165064,"INCLINATION":97.6074,"RA_OF_ASC_NODE":250.9983,"ARG_OF_PERICENTER":137.6901,"MEAN_ANOMALY":222.5605,"EPHEMERIS_TYPE":0,"CLASSIFICATION_TYPE":"U","NORAD_CAT_ID":63349,"ELEMENT_SET_NO":999,"REV_AT_EPOCH":5331,"BSTAR":0.00030523847,"MEAN_MOTION_DOT":4.989e-5,"MEAN_MOTION_DDOT":0}]
